{
  "norad_id": 48880,
  "name": "STARLINK-3004",
  "history": [
    {
      "epoch": "2026-03-28T21:14:02.628096Z",
      "apogee_km": 564.7736471715543,
      "perigee_km": 561.2605902489931,
      "latitude_deg": 4.868125045327498e-05,
      "longitude_deg": 69.42335517290402,
      "height_km": 565.887693338278,
      "semi_major_axis_km": 6941.154118710274,
      "eccentricity": 0.00025306,
      "inclination_deg": 97.6601,
      "raan_deg": 214.2331,
      "arg_perigee_deg": 84.029,
      "mean_anomaly_deg": 276.1223,
      "mean_motion_rev_day": 15.01257641
    },
    {
      "epoch": "2026-03-29T05:13:56.192736Z",
      "apogee_km": 564.7566898609075,
      "perigee_km": 561.2541893858734,
      "latitude_deg": -3.057005383081899e-05,
      "longitude_deg": -50.549695072092135,
      "height_km": 565.8580359959126,
      "semi_major_axis_km": 6941.14243962339,
      "eccentricity": 0.0002523,
      "inclination_deg": 97.6598,
      "raan_deg": 214.5617,
      "arg_perigee_deg": 83.4178,
      "mean_anomaly_deg": 276.7333,
      "mean_motion_rev_day": 15.0126143
    },
    {
      "epoch": "2026-03-29T21:13:44.389056Z",
      "apogee_km": 564.7370059803834,
      "perigee_km": 561.3011337258067,
      "latitude_deg": -1.2539017091229094e-05,
      "longitude_deg": 69.49962285929314,
      "height_km": 565.8908835549886,
      "semi_major_axis_km": 6941.156069853095,
      "eccentricity": 0.0002475,
      "inclination_deg": 97.6599,
      "raan_deg": 215.2188,
      "arg_perigee_deg": 83.932,
      "mean_anomaly_deg": 276.2186,
      "mean_motion_rev_day": 15.01257008
    },
    {
      "epoch": "2026-03-30T05:13:38.072928Z",
      "apogee_km": 564.7399156192178,
      "perigee_km": 561.2859994003602,
      "latitude_deg": 5.132787577709082e-05,
      "longitude_deg": -50.47404444451013,
      "height_km": 565.8770412969059,
      "semi_major_axis_km": 6941.149957509789,
      "eccentricity": 0.0002488,
      "inclination_deg": 97.6598,
      "raan_deg": 215.5473,
      "arg_perigee_deg": 83.7068,
      "mean_anomaly_deg": 276.444,
      "mean_motion_rev_day": 15.01258991
    },
    {
      "epoch": "2026-03-30T14:49:30.527616Z",
      "apogee_km": 564.6676146712698,
      "perigee_km": 561.3441954483278,
      "latitude_deg": -3.479681454508174e-05,
      "longitude_deg": 165.55743442312024,
      "height_km": 565.811669078426,
      "semi_major_axis_km": 6941.142905059799,
      "eccentricity": 0.0002394,
      "inclination_deg": 97.6599,
      "raan_deg": 215.9415,
      "arg_perigee_deg": 81.4233,
      "mean_anomaly_deg": 278.7262,
      "mean_motion_rev_day": 15.01261279
    },
    {
      "epoch": "2026-03-30T19:37:26.875488Z",
      "apogee_km": 564.6795701059309,
      "perigee_km": 561.338380079359,
      "latitude_deg": -9.760042970853727e-06,
      "longitude_deg": 93.57296117325511,
      "height_km": 565.8255915182622,
      "semi_major_axis_km": 6941.145975092644,
      "eccentricity": 0.00024068,
      "inclination_deg": 97.6599,
      "raan_deg": 216.1389,
      "arg_perigee_deg": 81.8465,
      "mean_anomaly_deg": 278.3032,
      "mean_motion_rev_day": 15.01260283
    },
    {
      "epoch": "2026-03-31T21:13:07.137696Z",
      "apogee_km": 564.79586130194,
      "perigee_km": 561.2406015923925,
      "latitude_deg": -8.54411441547431e-06,
      "longitude_deg": 69.65607378801816,
      "height_km": 565.892836768688,
      "semi_major_axis_km": 6941.1552314471655,
      "eccentricity": 0.0002561,
      "inclination_deg": 97.6594,
      "raan_deg": 217.1909,
      "arg_perigee_deg": 84.2316,
      "mean_anomaly_deg": 275.92,
      "mean_motion_rev_day": 15.0125728
    },
    {
      "epoch": "2026-04-01T14:48:53.462016Z",
      "apogee_km": 564.7953685479742,
      "perigee_km": 561.227618222375,
      "latitude_deg": -5.828911043482866e-05,
      "longitude_deg": 165.71331306013127,
      "height_km": 565.8566128309782,
      "semi_major_axis_km": 6941.148493385174,
      "eccentricity": 0.000257,
      "inclination_deg": 97.6594,
      "raan_deg": 217.9138,
      "arg_perigee_deg": 83.2993,
      "mean_anomaly_deg": 276.8523,
      "mean_motion_rev_day": 15.01259466
    },
    {
      "epoch": "2026-04-02T19:36:30.493440Z",
      "apogee_km": 564.788216684763,
      "perigee_km": 561.1746704230482,
      "latitude_deg": -3.422109265941081e-05,
      "longitude_deg": 93.80960133507286,
      "height_km": 565.823719977372,
      "semi_major_axis_km": 6941.118443553905,
      "eccentricity": 0.0002603,
      "inclination_deg": 97.659,
      "raan_deg": 219.0969,
      "arg_perigee_deg": 83.2951,
      "mean_anomaly_deg": 276.8569,
      "mean_motion_rev_day": 15.01269215
    },
    {
      "epoch": "2026-04-02T22:48:27.821664Z",
      "apogee_km": 564.7723766797717,
      "perigee_km": 561.1760481383981,
      "latitude_deg": 1.5258271682055263e-05,
      "longitude_deg": 45.82073835994616,
      "height_km": 565.8131648155739,
      "semi_major_axis_km": 6941.111212409084,
      "eccentricity": 0.00025906,
      "inclination_deg": 97.6589,
      "raan_deg": 219.2283,
      "arg_perigee_deg": 83.1555,
      "mean_anomaly_deg": 276.9964,
      "mean_motion_rev_day": 15.01271561
    },
    {
      "epoch": "2026-04-03T19:36:11.453472Z",
      "apogee_km": 563.9516724984232,
      "perigee_km": 562.0303682623826,
      "latitude_deg": -3.0519949191793e-05,
      "longitude_deg": 93.88940633614295,
      "height_km": 565.8486724115729,
      "semi_major_axis_km": 6941.128020380403,
      "eccentricity": 0.0001384,
      "inclination_deg": 97.6585,
      "raan_deg": 220.0828,
      "arg_perigee_deg": 78.1209,
      "mean_anomaly_deg": 282.017,
      "mean_motion_rev_day": 15.01266108
    },
    {
      "epoch": "2026-04-04T06:48:04.579776Z",
      "apogee_km": 564.4967137925114,
      "perigee_km": 561.6012674683789,
      "latitude_deg": -1.2105141932380778e-07,
      "longitude_deg": -74.0813468534248,
      "height_km": 565.9635601858444,
      "semi_major_axis_km": 6941.185990630444,
      "eccentricity": 0.00020857,
      "inclination_deg": 97.6588,
      "raan_deg": 220.5433,
      "arg_perigee_deg": 84.468,
      "mean_anomaly_deg": 275.6782,
      "mean_motion_rev_day": 15.01247301
    },
    {
      "epoch": "2026-04-05T14:46:43.461984Z",
      "apogee_km": 562.9280294475984,
      "perigee_km": 559.260923181625,
      "latitude_deg": 6.208347661718357e-06,
      "longitude_deg": 166.25797339989614,
      "height_km": 563.5573159296282,
      "semi_major_axis_km": 6939.231476314611,
      "eccentricity": 0.00026423,
      "inclination_deg": 97.6581,
      "raan_deg": 221.8579,
      "arg_perigee_deg": 71.1861,
      "mean_anomaly_deg": 288.965,
      "mean_motion_rev_day": 15.01881611
    },
    {
      "epoch": "2026-04-05T19:34:16.451616Z",
      "apogee_km": 562.5106643356539,
      "perigee_km": 558.3766579777366,
      "latitude_deg": -2.8988652167929958e-05,
      "longitude_deg": 94.37140008598426,
      "height_km": 563.7064055335626,
      "semi_major_axis_km": 6938.580661156695,
      "eccentricity": 0.0002979,
      "inclination_deg": 97.6581,
      "raan_deg": 222.0556,
      "arg_perigee_deg": 95.8029,
      "mean_anomaly_deg": 264.3535,
      "mean_motion_rev_day": 15.02092923
    },
    {
      "epoch": "2026-04-06T06:00:02.000160Z",
      "apogee_km": 556.0624173850447,
      "perigee_km": 553.3075912334116,
      "latitude_deg": -8.538134738084427,
      "longitude_deg": 116.7763648416666,
      "height_km": 559.495024911493,
      "semi_major_axis_km": 6932.822004309228,
      "eccentricity": 0.00019868,
      "inclination_deg": 97.6585,
      "raan_deg": 222.4791,
      "arg_perigee_deg": 88.1486,
      "mean_anomaly_deg": 100.2693,
      "mean_motion_rev_day": 15.03964852
    },
    {
      "epoch": "2026-04-07T14:00:01.999872Z",
      "apogee_km": 547.0086079871271,
      "perigee_km": 544.0945659346471,
      "latitude_deg": -28.969200411394674,
      "longitude_deg": -6.324783161458233,
      "height_km": 557.2585076677767,
      "semi_major_axis_km": 6923.688586960887,
      "eccentricity": 0.00021044,
      "inclination_deg": 97.6594,
      "raan_deg": 223.788,
      "arg_perigee_deg": 86.3579,
      "mean_anomaly_deg": 122.6131,
      "mean_motion_rev_day": 15.06941777
    },
    {
      "epoch": "2026-04-07T20:00:00.999360Z",
      "apogee_km": 545.2217996764139,
      "perigee_km": 541.9838097957581,
      "latitude_deg": 55.63324233278368,
      "longitude_deg": -80.79096123627768,
      "height_km": 551.9678666279781,
      "semi_major_axis_km": 6921.739804736086,
      "eccentricity": 0.0002339,
      "inclination_deg": 97.6574,
      "raan_deg": 224.0424,
      "arg_perigee_deg": 68.1576,
      "mean_anomaly_deg": 55.5325,
      "mean_motion_rev_day": 15.0757823
    },
    {
      "epoch": "2026-04-08T16:00:01.999584Z",
      "apogee_km": 541.3627014228523,
      "perigee_km": 538.6210469500129,
      "latitude_deg": -36.28832845918605,
      "longitude_deg": 153.56429635944212,
      "height_km": 555.1479313519129,
      "semi_major_axis_km": 6918.128874186433,
      "eccentricity": 0.00019815,
      "inclination_deg": 97.6569,
      "raan_deg": 224.8646,
      "arg_perigee_deg": 129.272,
      "mean_anomaly_deg": 194.3414,
      "mean_motion_rev_day": 15.08758709
    },
    {
      "epoch": "2026-04-09T20:00:01.999008Z",
      "apogee_km": 533.8200241828072,
      "perigee_km": 530.2225957666333,
      "latitude_deg": 1.236745684408438,
      "longitude_deg": -91.88611783517216,
      "height_km": 534.818902533883,
      "semi_major_axis_km": 6910.1583099747195,
      "eccentricity": 0.0002603,
      "inclination_deg": 97.6573,
      "raan_deg": 226.0327,
      "arg_perigee_deg": 92.5,
      "mean_anomaly_deg": 86.1074,
      "mean_motion_rev_day": 15.11369892
    }
  ]
}